{
  "type": "FeatureCollection",
  "features": [
    {
      "type": "Feature",
      "properties": {
        "norad_id": 42988,
        "name": "SKYSAT-C10",
        "group": "resource",
        "lat": -73.14986715993999,
        "lon": -90.95990004631024,
        "alt_km": 480.20820175489735,
        "timestamp": "2025-12-09T16:56:36.237682+00:00",
        "meta_object_name": "SKYSAT-C10",
        "meta_object_id": "2017-068B",
        "meta_epoch": "2025-12-09T07:59:47.838912",
        "meta_mean_motion": 15.31948454,
        "meta_eccentricity": 0.0005328,
        "meta_inclination": 97.4261,
        "meta_ra_of_asc_node": 114.1753,
        "meta_arg_of_pericenter": 113.1089,
        "meta_mean_anomaly": 247.0714,
        "meta_ephemeris_type": 0,
        "meta_classification_type": "U",
        "meta_norad_cat_id": 42988,
        "meta_element_set_no": 999,
        "meta_rev_at_epoch": 45327,
        "meta_bstar": 0.00050153,
        "meta_mean_motion_dot": 0.00015413,
        "meta_mean_motion_ddot": 0,
        "tle_line1": "1 42988U 17068B   25343.33319258  .00015413  00000+0  50153-3 0  9994",
        "tle_line2": "2 42988  97.4261 114.1753 0005328 113.1089 247.0714 15.31948454453275"
      },
      "geometry": {
        "type": "Point",
        "coordinates": [
          -90.95990004631024,
          -73.14986715993999
        ]
      }
    },
    {
      "type": "Feature",
      "properties": {
        "norad_id": 42989,
        "name": "SKYSAT-C9",
        "group": "resource",
        "lat": 58.00932399499873,
        "lon": 101.89513725085358,
        "alt_km": 446.88827586028674,
        "timestamp": "2025-12-09T16:56:36.237693+00:00",
        "meta_object_name": "SKYSAT-C9",
        "meta_object_id": "2017-068C",
        "meta_epoch": "2025-12-09T08:52:14.036160",
        "meta_mean_motion": 15.35916317,
        "meta_eccentricity": 0.0010693,
        "meta_inclination": 97.4191,
        "meta_ra_of_asc_node": 113.5973,
        "meta_arg_of_pericenter": 98.5106,
        "meta_mean_anomaly": 261.735,
        "meta_ephemeris_type": 0,
        "meta_classification_type": "U",
        "meta_norad_cat_id": 42989,
        "meta_element_set_no": 999,
        "meta_rev_at_epoch": 45356,
        "meta_bstar": 0.00052582,
        "meta_mean_motion_dot": 0.00018356,
        "meta_mean_motion_ddot": 0,
        "tle_line1": "1 42989U 17068C   25343.36960690  .00018356  00000+0  52582-3 0  9997",
        "tle_line2": "2 42989  97.4191 113.5973 0010693  98.5106 261.7350 15.35916317453560"
      },
      "geometry": {
        "type": "Point",
        "coordinates": [
          101.89513725085358,
          58.00932399499873
        ]
      }
    },
    {
      "type": "Feature",
      "properties": {
        "norad_id": 42990,
        "name": "SKYSAT-C8",
        "group": "resource",
        "lat": 62.80539690852879,
        "lon": 98.98346907036799,
        "alt_km": 460.75770267277676,
        "timestamp": "2025-12-09T16:56:36.237703+00:00",
        "meta_object_name": "SKYSAT-C8",
        "meta_object_id": "2017-068D",
        "meta_epoch": "2025-12-09T08:49:56.866656",
        "meta_mean_motion": 15.3280298,
        "meta_eccentricity": 0.0001807,
        "meta_inclination": 97.4282,
        "meta_ra_of_asc_node": 113.3541,
        "meta_arg_of_pericenter": 2.8529,
        "meta_mean_anomaly": 357.2723,
        "meta_ephemeris_type": 0,
        "meta_classification_type": "U",
        "meta_norad_cat_id": 42990,
        "meta_element_set_no": 999,
        "meta_rev_at_epoch": 45319,
        "meta_bstar": 0.0004918,
        "meta_mean_motion_dot": 0.00015517,
        "meta_mean_motion_ddot": 0,
        "tle_line1": "1 42990U 17068D   25343.36801929  .00015517  00000+0  49180-3 0  9994",
        "tle_line2": "2 42990  97.4282 113.3541 0001807   2.8529 357.2723 15.32802980453197"
      },
      "geometry": {
        "type": "Point",
        "coordinates": [
          98.98346907036799,
          62.80539690852879
        ]
      }
    },
    {
      "type": "Feature",
      "properties": {
        "norad_id": 42991,
        "name": "SKYSAT-C7",
        "group": "resource",
        "lat": -72.7537558330281,
        "lon": 139.59200110739303,
        "alt_km": 480.6469173329415,
        "timestamp": "2025-12-09T16:56:36.237714+00:00",
        "meta_object_name": "SKYSAT-C7",
        "meta_object_id": "2017-068E",
        "meta_epoch": "2025-12-09T07:51:48.807072",
        "meta_mean_motion": 15.32208172,
        "meta_eccentricity": 0.0007776,
        "meta_inclination": 97.429,
        "meta_ra_of_asc_node": 114.3574,
        "meta_arg_of_pericenter": 67.8691,
        "meta_mean_anomaly": 292.3376,
        "meta_ephemeris_type": 0,
        "meta_classification_type": "U",
        "meta_norad_cat_id": 42991,
        "meta_element_set_no": 999,
        "meta_rev_at_epoch": 45325,
        "meta_bstar": 0.00049179,
        "meta_mean_motion_dot": 0.00015242,
        "meta_mean_motion_ddot": 0,
        "tle_line1": "1 42991U 17068E   25343.32764823  .00015242  00000+0  49179-3 0  9995",
        "tle_line2": "2 42991  97.4290 114.3574 0007776  67.8691 292.3376 15.32208172453259"
      },
      "geometry": {
        "type": "Point",
        "coordinates": [
          139.59200110739303,
          -72.7537558330281
        ]
      }
    },
    {
      "type": "Feature",
      "properties": {
        "norad_id": 42992,
        "name": "SKYSAT-C6",
        "group": "resource",
        "lat": 51.01233295286276,
        "lon": 105.89690344754318,
        "alt_km": 464.2373180038494,
        "timestamp": "2025-12-09T16:56:36.237724+00:00",
        "meta_object_name": "SKYSAT-C6",
        "meta_object_id": "2017-068F",
        "meta_epoch": "2025-12-09T08:52:39.969984",
        "meta_mean_motion": 15.31378628,
        "meta_eccentricity": 0.0005226,
        "meta_inclination": 97.4323,
        "meta_ra_of_asc_node": 114.8411,
        "meta_arg_of_pericenter": 91.9107,
        "meta_mean_anomaly": 268.2733,
        "meta_ephemeris_type": 0,
        "meta_classification_type": "U",
        "meta_norad_cat_id": 42992,
        "meta_element_set_no": 999,
        "meta_rev_at_epoch": 45324,
        "meta_bstar": 0.00048597,
        "meta_mean_motion_dot": 0.00014667,
        "meta_mean_motion_ddot": 0,
        "tle_line1": "1 42992U 17068F   25343.36990706  .00014667  00000+0  48597-3 0  9994",
        "tle_line2": "2 42992  97.4323 114.8411 0005226  91.9107 268.2733 15.31378628453241"
      },
      "geometry": {
        "type": "Point",
        "coordinates": [
          105.89690344754318,
          51.01233295286276
        ]
      }
    },
    {
      "type": "Feature",
      "properties": {
        "norad_id": 43111,
        "name": "CARTOSAT-2F",
        "group": "resource",
        "lat": -67.7758304124055,
        "lon": 60.02226978720626,
        "alt_km": 515.8666174876325,
        "timestamp": "2025-12-09T16:56:36.237735+00:00",
        "meta_object_name": "CARTOSAT-2F",
        "meta_object_id": "2018-004A",
        "meta_epoch": "2025-12-09T12:30:16.036416",
        "meta_mean_motion": 15.19225187,
        "meta_eccentricity": 6.86e-05,
        "meta_inclination": 97.4312,
        "meta_ra_of_asc_node": 41.2107,
        "meta_arg_of_pericenter": 140.3986,
        "meta_mean_anomaly": 219.7299,
        "meta_ephemeris_type": 0,
        "meta_classification_type": "U",
        "meta_norad_cat_id": 43111,
        "meta_element_set_no": 999,
        "meta_rev_at_epoch": 43853,
        "meta_bstar": 0.00043412,
        "meta_mean_motion_dot": 9.08e-05,
        "meta_mean_motion_ddot": 0,
        "tle_line1": "1 43111U 18004A   25343.52101894  .00009080  00000+0  43412-3 0  9993",
        "tle_line2": "2 43111  97.4312  41.2107 0000686 140.3986 219.7299 15.19225187438537"
      },
      "geometry": {
        "type": "Point",
        "coordinates": [
          60.02226978720626,
          -67.7758304124055
        ]
      }
    },
    {
      "type": "Feature",
      "properties": {
        "norad_id": 43259,
        "name": "GAOFEN-1 02",
        "group": "resource",
        "lat": 15.75785608640002,
        "lon": -136.20829426484863,
        "alt_km": 640.7230428116363,
        "timestamp": "2025-12-09T16:56:36.237745+00:00",
        "meta_object_name": "GAOFEN-1 02",
        "meta_object_id": "2018-031A",
        "meta_epoch": "2025-12-09T12:57:00.262368",
        "meta_mean_motion": 14.76471918,
        "meta_eccentricity": 0.0001419,
        "meta_inclination": 98.0806,
        "meta_ra_of_asc_node": 41.3277,
        "meta_arg_of_pericenter": 223.9744,
        "meta_mean_anomaly": 136.1353,
        "meta_ephemeris_type": 0,
        "meta_classification_type": "U",
        "meta_norad_cat_id": 43259,
        "meta_element_set_no": 999,
        "meta_rev_at_epoch": 41471,
        "meta_bstar": 0.00029646,
        "meta_mean_motion_dot": 2.012e-05,
        "meta_mean_motion_ddot": 0,
        "tle_line1": "1 43259U 18031A   25343.53958637  .00002012  00000+0  29646-3 0  9993",
        "tle_line2": "2 43259  98.0806  41.3277 0001419 223.9744 136.1353 14.76471918414713"
      },
      "geometry": {
        "type": "Point",
        "coordinates": [
          -136.20829426484863,
          15.75785608640002
        ]
      }
    }
  ]
}